[{"OBJECT_NAME":"STARLINK-31509","OBJECT_ID":"2024-073Y","EPOCH":"2025-10-10T20:09:53.001792","MEAN_MOTION":15.27584929,"ECCENTRICITY":0.00017356,"INCLINATION":43.0038,"RA_OF_ASC_NODE":84.6784,"ARG_OF_PERICENTER":258.6382,"MEAN_ANOMALY":101.4274,"EPHEMERIS_TYPE":0,"CLASSIFICATION_TYPE":"U","NORAD_CAT_ID":59533,"ELEMENT_SET_NO":999,"REV_AT_EPOCH":8325,"BSTAR":-5.1848725e-5,"MEAN_MOTION_DOT":-1.689e-5,"MEAN_MOTION_DDOT":0},{"OBJECT_NAME":"STARLINK-31734","OBJECT_ID":"2024-074A","EPOCH":"2025-10-11T04:09:03.998880","MEAN_MOTION":15.27576252,"ECCENTRICITY":0.00012118,"INCLINATION":43.0018,"RA_OF_ASC_NODE":97.0167,"ARG_OF_PERICENTER":270.8321,"MEAN_ANOMALY":89.2392,"EPHEMERIS_TYPE":0,"CLASSIFICATION_TYPE":"U","NORAD_CAT_ID":59534,"ELEMENT_SET_NO":999,"REV_AT_EPOCH":8327,"BSTAR":2.9261761e-5,"MEAN_MOTION_DOT":5.43e-6,"MEAN_MOTION_DDOT":0},{"OBJECT_NAME":"STARLINK-31738","OBJECT_ID":"2024-074B","EPOCH":"2025-10-11T04:33:33.385536","MEAN_MOTION":15.27577851,"ECCENTRICITY":0.00011131,"INCLINATION":42.9999,"RA_OF_ASC_NODE":103.9861,"ARG_OF_PERICENTER":263.0564,"MEAN_ANOMALY":97.0161,"EPHEMERIS_TYPE":0,"CLASSIFICATION_TYPE":"U","NORAD_CAT_ID":59535,"ELEMENT_SET_NO":999,"REV_AT_EPOCH":8319,"BSTAR":3.3593958e-5,"MEAN_MOTION_DOT":6.62e-6,"MEAN_MOTION_DDOT":0},{"OBJECT_NAME":"STARLINK-31721","OBJECT_ID":"2024-074C","EPOCH":"2025-10-10T19:11:38.351616","MEAN_MOTION":15.27585196,"ECCENTRICITY":0.00016191,"INCLINATION":43.001,"RA_OF_ASC_NODE":109.7589,"ARG_OF_PERICENTER":265.7955,"MEAN_ANOMALY":94.2712,"EPHEMERIS_TYPE":0,"CLASSIFICATION_TYPE":"U","NORAD_CAT_ID":59536,"ELEMENT_SET_NO":999,"REV_AT_EPOCH":8309,"BSTAR":1.4453493e-5,"MEAN_MOTION_DOT":1.36e-6,"MEAN_MOTION_DDOT":0},{"OBJECT_NAME":"STARLINK-31737","OBJECT_ID":"2024-074D","EPOCH":"2025-10-11T04:56:56.119776","MEAN_MOTION":15.27570601,"ECCENTRICITY":9.298e-5,"INCLINATION":42.9979,"RA_OF_ASC_NODE":107.6536,"ARG_OF_PERICENTER":267.5266,"MEAN_ANOMALY":92.5479,"EPHEMERIS_TYPE":0,"CLASSIFICATION_TYPE":"U","NORAD_CAT_ID":59537,"ELEMENT_SET_NO":999,"REV_AT_EPOCH":8315,"BSTAR":-0.00012207768,"MEAN_MOTION_DOT":-3.619e-5,"MEAN_MOTION_DDOT":0},{"OBJECT_NAME":"STARLINK-31725","OBJECT_ID":"2024-074E","EPOCH":"2025-10-11T05:04:30.111168","MEAN_MOTION":15.27576575,"ECCENTRICITY":0.00016323,"INCLINATION":43.0039,"RA_OF_ASC_NODE":97.0265,"ARG_OF_PERICENTER":267.8852,"MEAN_ANOMALY":92.1813,"EPHEMERIS_TYPE":0,"CLASSIFICATION_TYPE":"U","NORAD_CAT_ID":59538,"ELEMENT_SET_NO":999,"REV_AT_EPOCH":8327,"BSTAR":5.9672743e-5,"MEAN_MOTION_DOT":1.38e-5,"MEAN_MOTION_DDOT":0},{"OBJECT_NAME":"STARLINK-31539","OBJECT_ID":"2024-074F","EPOCH":"2025-10-11T05:13:36.541920","MEAN_MOTION":15.27572653,"ECCENTRICITY":0.00011062,"INCLINATION":43.0018,"RA_OF_ASC_NODE":107.7405,"ARG_OF_PERICENTER":306.6215,"MEAN_ANOMALY":53.4535,"EPHEMERIS_TYPE":0,"CLASSIFICATION_TYPE":"U","NORAD_CAT_ID":59539,"ELEMENT_SET_NO":999,"REV_AT_EPOCH":8315,"BSTAR":1.361643e-5,"MEAN_MOTION_DOT":1.13e-6,"MEAN_MOTION_DDOT":0},{"OBJECT_NAME":"STARLINK-31397","OBJECT_ID":"2024-074G","EPOCH":"2025-10-11T05:33:56.286144","MEAN_MOTION":15.2760791,"ECCENTRICITY":0.0001649,"INCLINATION":43.0025,"RA_OF_ASC_NODE":107.8453,"ARG_OF_PERICENTER":283.7926,"MEAN_ANOMALY":76.2743,"EPHEMERIS_TYPE":0,"CLASSIFICATION_TYPE":"U","NORAD_CAT_ID":59540,"ELEMENT_SET_NO":999,"REV_AT_EPOCH":8315,"BSTAR":0.00043501224,"MEAN_MOTION_DOT":0.00011738,"MEAN_MOTION_DDOT":0},{"OBJECT_NAME":"STARLINK-31481","OBJECT_ID":"2024-074H","EPOCH":"2025-10-10T21:59:36.909024","MEAN_MOTION":15.27566608,"ECCENTRICITY":9.14e-5,"INCLINATION":43.0012,"RA_OF_ASC_NODE":108.9128,"ARG_OF_PERICENTER":219.0664,"MEAN_ANOMALY":141.0122,"EPHEMERIS_TYPE":0,"CLASSIFICATION_TYPE":"U","NORAD_CAT_ID":59541,"ELEMENT_SET_NO":999,"REV_AT_EPOCH":8311,"BSTAR":0.00011569,"MEAN_MOTION_DOT":2.922e-5,"MEAN_MOTION_DDOT":0},{"OBJECT_NAME":"STARLINK-31540","OBJECT_ID":"2024-074J","EPOCH":"2025-10-10T19:17:11.300064","MEAN_MOTION":15.27585372,"ECCENTRICITY":0.00016514,"INCLINATION":43.0017,"RA_OF_ASC_NODE":109.7872,"ARG_OF_PERICENTER":266.9734,"MEAN_ANOMALY":93.0929,"EPHEMERIS_TYPE":0,"CLASSIFICATION_TYPE":"U","NORAD_CAT_ID":59542,"ELEMENT_SET_NO":999,"REV_AT_EPOCH":8309,"BSTAR":0.00013272764,"MEAN_MOTION_DOT":3.392e-5,"MEAN_MOTION_DDOT":0},{"OBJECT_NAME":"STARLINK-31574","OBJECT_ID":"2024-074K","EPOCH":"2025-10-11T05:19:08.367168","MEAN_MOTION":15.27579102,"ECCENTRICITY":0.00011826,"INCLINATION":43.0013,"RA_OF_ASC_NODE":107.763,"ARG_OF_PERICENTER":282.699,"MEAN_ANOMALY":77.373,"EPHEMERIS_TYPE":0,"CLASSIFICATION_TYPE":"U","NORAD_CAT_ID":59543,"ELEMENT_SET_NO":999,"REV_AT_EPOCH":8315,"BSTAR":0.00013415242,"MEAN_MOTION_DOT":3.431e-5,"MEAN_MOTION_DDOT":0},{"OBJECT_NAME":"STARLINK-31556","OBJECT_ID":"2024-074L","EPOCH":"2025-10-11T05:22:49.153728","MEAN_MOTION":15.27608432,"ECCENTRICITY":9.722e-5,"INCLINATION":43.0042,"RA_OF_ASC_NODE":107.7908,"ARG_OF_PERICENTER":262.1768,"MEAN_ANOMALY":97.8973,"EPHEMERIS_TYPE":0,"CLASSIFICATION_TYPE":"U","NORAD_CAT_ID":59544,"ELEMENT_SET_NO":999,"REV_AT_EPOCH":8315,"BSTAR":-0.00016832164,"MEAN_MOTION_DOT":-4.895e-5,"MEAN_MOTION_DDOT":0},{"OBJECT_NAME":"STARLINK-31582","OBJECT_ID":"2024-074M","EPOCH":"2025-10-10T21:48:42.459264","MEAN_MOTION":15.27586092,"ECCENTRICITY":0.0001802,"INCLINATION":43.0017,"RA_OF_ASC_NODE":109.7172,"ARG_OF_PERICENTER":276.9345,"MEAN_ANOMALY":83.1302,"EPHEMERIS_TYPE":0,"CLASSIFICATION_TYPE":"U","NORAD_CAT_ID":59545,"ELEMENT_SET_NO":999,"REV_AT_EPOCH":8310,"BSTAR":0.00011427,"MEAN_MOTION_DOT":2.884e-5,"MEAN_MOTION_DDOT":0},{"OBJECT_NAME":"STARLINK-31519","OBJECT_ID":"2024-074N","EPOCH":"2025-10-10T22:08:51.103680","MEAN_MOTION":15.27576631,"ECCENTRICITY":0.00016,"INCLINATION":43.001,"RA_OF_ASC_NODE":108.9594,"ARG_OF_PERICENTER":258.9983,"MEAN_ANOMALY":101.0689,"EPHEMERIS_TYPE":0,"CLASSIFICATION_TYPE":"U","NORAD_CAT_ID":59546,"ELEMENT_SET_NO":999,"REV_AT_EPOCH":8311,"BSTAR":9.9147e-5,"MEAN_MOTION_DOT":2.467e-5,"MEAN_MOTION_DDOT":0},{"OBJECT_NAME":"STARLINK-31736","OBJECT_ID":"2024-074P","EPOCH":"2025-10-11T05:02:01.406400","MEAN_MOTION":15.27574864,"ECCENTRICITY":0.00010829,"INCLINATION":43.0046,"RA_OF_ASC_NODE":100.7504,"ARG_OF_PERICENTER":282.6413,"MEAN_ANOMALY":77.4317,"EPHEMERIS_TYPE":0,"CLASSIFICATION_TYPE":"U","NORAD_CAT_ID":59547,"ELEMENT_SET_NO":999,"REV_AT_EPOCH":8323,"BSTAR":7.3583128e-5,"MEAN_MOTION_DOT":1.763e-5,"MEAN_MOTION_DDOT":0},{"OBJECT_NAME":"STARLINK-31675","OBJECT_ID":"2024-074Q","EPOCH":"2025-10-11T04:47:41.717760","MEAN_MOTION":15.275458,"ECCENTRICITY":0.00013359,"INCLINATION":43.0009,"RA_OF_ASC_NODE":107.5985,"ARG_OF_PERICENTER":253.3066,"MEAN_ANOMALY":106.764,"EPHEMERIS_TYPE":0,"CLASSIFICATION_TYPE":"U","NORAD_CAT_ID":59548,"ELEMENT_SET_NO":999,"REV_AT_EPOCH":8315,"BSTAR":0.00033024016,"MEAN_MOTION_DOT":8.827e-5,"MEAN_MOTION_DDOT":0}]
