STARLINK-31509          
1 59533U 24073Y   25283.84019678 -.00001689  00000+0 -51849-4 0  9990
2 59533  43.0038  84.6784 0001735 258.6382 101.4274 15.27584929 83251
STARLINK-31734          
1 59534U 24074A   25284.17296295  .00000543  00000+0  29262-4 0  9991
2 59534  43.0018  97.0167 0001211 270.8321  89.2392 15.27576252 83277
STARLINK-31738          
1 59535U 24074B   25284.18996974  .00000662  00000+0  33594-4 0  9999
2 59535  42.9999 103.9861 0001113 263.0564  97.0161 15.27577851 83194
STARLINK-31721          
1 59536U 24074C   25283.79974944  .00000136  00000+0  14453-4 0  9998
2 59536  43.0010 109.7589 0001619 265.7955  94.2712 15.27585196 83097
STARLINK-31737          
1 59537U 24074D   25284.20620509 -.00003619  00000+0 -12208-3 0  9997
2 59537  42.9979 107.6536 0000929 267.5266  92.5479 15.27570601 83150
STARLINK-31725          
1 59538U 24074E   25284.21145962  .00001380  00000+0  59673-4 0  9993
2 59538  43.0039  97.0265 0001632 267.8852  92.1813 15.27576575 83274
STARLINK-31539          
1 59539U 24074F   25284.21778405  .00000113  00000+0  13616-4 0  9998
2 59539  43.0018 107.7405 0001106 306.6215  53.4535 15.27572653 83159
STARLINK-31397          
1 59540U 24074G   25284.23190146  .00011738  00000+0  43501-3 0  9992
2 59540  43.0025 107.8453 0001649 283.7926  76.2743 15.27607910 83158
STARLINK-31481          
1 59541U 24074H   25283.91639941  .00002922  00000+0  11569-3 0  9992
2 59541  43.0012 108.9128 0000914 219.0664 141.0122 15.27566608 83117
STARLINK-31540          
1 59542U 24074J   25283.80360301  .00003392  00000+0  13273-3 0  9998
2 59542  43.0017 109.7872 0001651 266.9734  93.0929 15.27585372 83093
STARLINK-31574          
1 59543U 24074K   25284.22162462  .00003431  00000+0  13415-3 0  9996
2 59543  43.0013 107.7630 0001182 282.6990  77.3730 15.27579102 83154
STARLINK-31556          
1 59544U 24074L   25284.22418002 -.00004895  00000+0 -16832-3 0  9994
2 59544  43.0042 107.7908 0000972 262.1768  97.8973 15.27608432 83152
STARLINK-31582          
1 59545U 24074M   25283.90882476  .00002884  00000+0  11427-3 0  9998
2 59545  43.0017 109.7172 0001802 276.9345  83.1302 15.27586092 83103
STARLINK-31519          
1 59546U 24074N   25283.92281370  .00002467  00000+0  99147-4 0  9990
2 59546  43.0010 108.9594 0001600 258.9983 101.0689 15.27576631 83117
STARLINK-31736          
1 59547U 24074P   25284.20973850  .00001763  00000+0  73583-4 0  9998
2 59547  43.0046 100.7504 0001082 282.6413  77.4317 15.27574864 83237
STARLINK-31675          
1 59548U 24074Q   25284.19978840  .00008827  00000+0  33024-3 0  9994
2 59548  43.0009 107.5985 0001335 253.3066 106.7640 15.27545800 83159
